{
  "type": "FeatureCollection",
  "features": [
    {
      "type": "Feature",
      "properties": {
        "norad_id": 28890,
        "name": "BEIJING 1",
        "group": "dmc",
        "lat": -23.451332632053663,
        "lon": -72.79613934492527,
        "alt_km": 681.2858236017646,
        "timestamp": "2025-12-09T07:41:32.869873+00:00",
        "meta_object_name": "BEIJING 1",
        "meta_object_id": "2005-043A",
        "meta_epoch": "2025-12-08T22:33:38.653344",
        "meta_mean_motion": 14.63361052,
        "meta_eccentricity": 0.00150624,
        "meta_inclination": 98.2656,
        "meta_ra_of_asc_node": 110.4381,
        "meta_arg_of_pericenter": 152.5706,
        "meta_mean_anomaly": 207.6294,
        "meta_ephemeris_type": 0,
        "meta_classification_type": "U",
        "meta_norad_cat_id": 28890,
        "meta_element_set_no": 999,
        "meta_rev_at_epoch": 7282,
        "meta_bstar": 0.00017017557,
        "meta_mean_motion_dot": 8.32e-06,
        "meta_mean_motion_ddot": 0,
        "tle_line1": "1 28890U 05043A   25342.94003071  .00000832  00000+0  17018-3 0  9991",
        "tle_line2": "2 28890  98.2656 110.4381 0015062 152.5706 207.6294 14.63361052 72823"
      },
      "geometry": {
        "type": "Point",
        "coordinates": [
          -72.79613934492527,
          -23.451332632053663
        ]
      }
    },
    {
      "type": "Feature",
      "properties": {
        "norad_id": 33320,
        "name": "HUANJING 1A (HJ-1A)",
        "group": "dmc",
        "lat": -15.278754791647215,
        "lon": -26.133365939962587,
        "alt_km": 616.3779235312022,
        "timestamp": "2025-12-09T07:41:32.869907+00:00",
        "meta_object_name": "HUANJING 1A (HJ-1A)",
        "meta_object_id": "2008-041A",
        "meta_epoch": "2025-12-08T23:40:01.303680",
        "meta_mean_motion": 14.83376055,
        "meta_eccentricity": 0.00203717,
        "meta_inclination": 97.6538,
        "meta_ra_of_asc_node": 331.441,
        "meta_arg_of_pericenter": 46.0719,
        "meta_mean_anomaly": 314.2172,
        "meta_ephemeris_type": 0,
        "meta_classification_type": "U",
        "meta_norad_cat_id": 33320,
        "meta_element_set_no": 999,
        "meta_rev_at_epoch": 93020,
        "meta_bstar": 0.00034195314,
        "meta_mean_motion_dot": 2.763e-05,
        "meta_mean_motion_ddot": 0,
        "tle_line1": "1 33320U 08041A   25342.98612620  .00002763  00000+0  34195-3 0  9996",
        "tle_line2": "2 33320  97.6538 331.4410 0020371  46.0719 314.2172 14.83376055930203"
      },
      "geometry": {
        "type": "Point",
        "coordinates": [
          -26.133365939962587,
          -15.278754791647215
        ]
      }
    },
    {
      "type": "Feature",
      "properties": {
        "norad_id": 33321,
        "name": "HUANJING 1B (HJ-1B)",
        "group": "dmc",
        "lat": -33.161141079467555,
        "lon": 150.4359267045646,
        "alt_km": 642.6656672846348,
        "timestamp": "2025-12-09T07:41:32.869923+00:00",
        "meta_object_name": "HUANJING 1B (HJ-1B)",
        "meta_object_id": "2008-041B",
        "meta_epoch": "2025-12-08T22:38:19.786848",
        "meta_mean_motion": 14.82806023,
        "meta_eccentricity": 0.00382158,
        "meta_inclination": 97.6396,
        "meta_ra_of_asc_node": 335.1069,
        "meta_arg_of_pericenter": 87.7087,
        "meta_mean_anomaly": 272.8502,
        "meta_ephemeris_type": 0,
        "meta_classification_type": "U",
        "meta_norad_cat_id": 33321,
        "meta_element_set_no": 999,
        "meta_rev_at_epoch": 93021,
        "meta_bstar": 0.00025478787,
        "meta_mean_motion_dot": 2.036e-05,
        "meta_mean_motion_ddot": 0,
        "tle_line1": "1 33321U 08041B   25342.94328457  .00002036  00000+0  25479-3 0  9993",
        "tle_line2": "2 33321  97.6396 335.1069 0038215  87.7087 272.8502 14.82806023930212"
      },
      "geometry": {
        "type": "Point",
        "coordinates": [
          150.4359267045646,
          -33.161141079467555
        ]
      }
    },
    {
      "type": "Feature",
      "properties": {
        "norad_id": 33446,
        "name": "YAOGAN-4",
        "group": "dmc",
        "lat": 52.815687392644755,
        "lon": 104.02411558206511,
        "alt_km": 624.538304216795,
        "timestamp": "2025-12-09T07:41:32.869936+00:00",
        "meta_object_name": "YAOGAN-4",
        "meta_object_id": "2008-061A",
        "meta_epoch": "2025-12-08T19:47:11.729184",
        "meta_mean_motion": 14.82664885,
        "meta_eccentricity": 0.00139192,
        "meta_inclination": 97.9177,
        "meta_ra_of_asc_node": 272.962,
        "meta_arg_of_pericenter": 336.595,
        "meta_mean_anomaly": 23.4628,
        "meta_ephemeris_type": 0,
        "meta_classification_type": "U",
        "meta_norad_cat_id": 33446,
        "meta_element_set_no": 999,
        "meta_rev_at_epoch": 91745,
        "meta_bstar": 0.00038742009,
        "meta_mean_motion_dot": 3.075e-05,
        "meta_mean_motion_ddot": 0,
        "tle_line1": "1 33446U 08061A   25342.82444131  .00003075  00000+0  38742-3 0  9999",
        "tle_line2": "2 33446  97.9177 272.9620 0013919 336.5950  23.4628 14.82664885917457"
      },
      "geometry": {
        "type": "Point",
        "coordinates": [
          104.02411558206511,
          52.815687392644755
        ]
      }
    },
    {
      "type": "Feature",
      "properties": {
        "norad_id": 35681,
        "name": "DEIMOS-1",
        "group": "dmc",
        "lat": -8.919959518207708,
        "lon": 145.30163930697765,
        "alt_km": 649.5345422407945,
        "timestamp": "2025-12-09T07:41:32.869949+00:00",
        "meta_object_name": "DEIMOS-1",
        "meta_object_id": "2009-041A",
        "meta_epoch": "2025-12-08T23:35:32.349120",
        "meta_mean_motion": 14.74944279,
        "meta_eccentricity": 0.00027139,
        "meta_inclination": 97.7145,
        "meta_ra_of_asc_node": 143.7609,
        "meta_arg_of_pericenter": 85.3579,
        "meta_mean_anomaly": 274.7941,
        "meta_ephemeris_type": 0,
        "meta_classification_type": "U",
        "meta_norad_cat_id": 35681,
        "meta_element_set_no": 999,
        "meta_rev_at_epoch": 87884,
        "meta_bstar": 0.00018870686,
        "meta_mean_motion_dot": 1.22e-05,
        "meta_mean_motion_ddot": 0,
        "tle_line1": "1 35681U 09041A   25342.98301330  .00001220  00000+0  18871-3 0  9992",
        "tle_line2": "2 35681  97.7145 143.7609 0002713  85.3579 274.7941 14.74944279878848"
      },
      "geometry": {
        "type": "Point",
        "coordinates": [
          145.30163930697765,
          -8.919959518207708
        ]
      }
    },
    {
      "type": "Feature",
      "properties": {
        "norad_id": 35683,
        "name": "UK-DMC 2",
        "group": "dmc",
        "lat": -2.1484254215992356,
        "lon": 118.6165595436637,
        "alt_km": 646.6318778113073,
        "timestamp": "2025-12-09T07:41:32.869960+00:00",
        "meta_object_name": "UK-DMC 2",
        "meta_object_id": "2009-041C",
        "meta_epoch": "2025-12-08T23:33:54.325728",
        "meta_mean_motion": 14.75608643,
        "meta_eccentricity": 0.00013526,
        "meta_inclination": 97.8563,
        "meta_ra_of_asc_node": 117.9908,
        "meta_arg_of_pericenter": 96.4562,
        "meta_mean_anomaly": 263.6801,
        "meta_ephemeris_type": 0,
        "meta_classification_type": "U",
        "meta_norad_cat_id": 35683,
        "meta_element_set_no": 999,
        "meta_rev_at_epoch": 87851,
        "meta_bstar": 0.00022320769,
        "meta_mean_motion_dot": 1.474e-05,
        "meta_mean_motion_ddot": 0,
        "tle_line1": "1 35683U 09041C   25342.98187877  .00001474  00000+0  22321-3 0  9998",
        "tle_line2": "2 35683  97.8563 117.9908 0001352  96.4562 263.6801 14.75608643878512"
      },
      "geometry": {
        "type": "Point",
        "coordinates": [
          118.6165595436637,
          -2.1484254215992356
        ]
      }
    },
    {
      "type": "Feature",
      "properties": {
        "norad_id": 40715,
        "name": "DMC3-FM1",
        "group": "dmc",
        "lat": -72.10230204436762,
        "lon": -124.70260374034406,
        "alt_km": 617.2573864551205,
        "timestamp": "2025-12-09T07:41:32.869971+00:00",
        "meta_object_name": "DMC3-FM1",
        "meta_object_id": "2015-032A",
        "meta_epoch": "2025-12-08T22:19:25.584672",
        "meta_mean_motion": 14.85431935,
        "meta_eccentricity": 0.00049165,
        "meta_inclination": 97.669,
        "meta_ra_of_asc_node": 210.2611,
        "meta_arg_of_pericenter": 336.0454,
        "meta_mean_anomaly": 24.0532,
        "meta_ephemeris_type": 0,
        "meta_classification_type": "U",
        "meta_norad_cat_id": 40715,
        "meta_element_set_no": 999,
        "meta_rev_at_epoch": 56166,
        "meta_bstar": 0.00022971733,
        "meta_mean_motion_dot": 1.929e-05,
        "meta_mean_motion_ddot": 0,
        "tle_line1": "1 40715U 15032A   25342.93015723  .00001929  00000+0  22972-3 0  9999",
        "tle_line2": "2 40715  97.6690 210.2611 0004916 336.0454  24.0532 14.85431935561667"
      },
      "geometry": {
        "type": "Point",
        "coordinates": [
          -124.70260374034406,
          -72.10230204436762
        ]
      }
    },
    {
      "type": "Feature",
      "properties": {
        "norad_id": 40716,
        "name": "DMC3-FM2",
        "group": "dmc",
        "lat": 13.703790711477511,
        "lon": 33.96313590436592,
        "alt_km": 617.2276231307887,
        "timestamp": "2025-12-09T07:41:32.869982+00:00",
        "meta_object_name": "DMC3-FM2",
        "meta_object_id": "2015-032B",
        "meta_epoch": "2025-12-08T22:51:49.487904",
        "meta_mean_motion": 14.85434029,
        "meta_eccentricity": 0.00056435,
        "meta_inclination": 97.6748,
        "meta_ra_of_asc_node": 211.7242,
        "meta_arg_of_pericenter": 340.876,
        "meta_mean_anomaly": 19.2243,
        "meta_ephemeris_type": 0,
        "meta_classification_type": "U",
        "meta_norad_cat_id": 40716,
        "meta_element_set_no": 999,
        "meta_rev_at_epoch": 56166,
        "meta_bstar": 0.00020219517,
        "meta_mean_motion_dot": 1.691e-05,
        "meta_mean_motion_ddot": 0,
        "tle_line1": "1 40716U 15032B   25342.95265611  .00001691  00000+0  20220-3 0  9995",
        "tle_line2": "2 40716  97.6748 211.7242 0005643 340.8760  19.2243 14.85434029561661"
      },
      "geometry": {
        "type": "Point",
        "coordinates": [
          33.96313590436592,
          13.703790711477511
        ]
      }
    },
    {
      "type": "Feature",
      "properties": {
        "norad_id": 40717,
        "name": "DMC3-FM3",
        "group": "dmc",
        "lat": 49.98032632023869,
        "lon": -155.5388698013367,
        "alt_km": 606.4764279541332,
        "timestamp": "2025-12-09T07:41:32.869993+00:00",
        "meta_object_name": "DMC3-FM3",
        "meta_object_id": "2015-032C",
        "meta_epoch": "2025-12-08T21:45:55.505088",
        "meta_mean_motion": 14.85420839,
        "meta_eccentricity": 0.00050419,
        "meta_inclination": 97.6803,
        "meta_ra_of_asc_node": 213.3103,
        "meta_arg_of_pericenter": 342.7545,
        "meta_mean_anomaly": 17.3499,
        "meta_ephemeris_type": 0,
        "meta_classification_type": "U",
        "meta_norad_cat_id": 40717,
        "meta_element_set_no": 999,
        "meta_rev_at_epoch": 56166,
        "meta_bstar": 8.1914989e-05,
        "meta_mean_motion_dot": 6.54e-06,
        "meta_mean_motion_ddot": 0,
        "tle_line1": "1 40717U 15032C   25342.90689242  .00000654  00000+0  81915-4 0  9998",
        "tle_line2": "2 40717  97.6803 213.3103 0005041 342.7545  17.3499 14.85420839561668"
      },
      "geometry": {
        "type": "Point",
        "coordinates": [
          -155.5388698013367,
          49.98032632023869
        ]
      }
    }
  ]
}